ONEWEB-0393             
1 50473U 21132E   23279.50102811  .00000124  00000+0  28507-3 0  9990
2 50473  87.9255 201.5155 0001683  67.9635 292.1676 13.17650333 89721
ONEWEB-0394             
1 50474U 21132F   23279.44848096  .00000020  00000+0  18484-4 0  9995
2 50474  87.9285 171.3052 0001703  79.3053 280.8271 13.18685020 91819
ONEWEB-0395             
1 50475U 21132G   23279.78646393  .00004991  00000+0  14044-1 0  9995
2 50475  87.8974 216.6478 0001419  79.3899 280.7389 13.11390518 87969
ONEWEB-0396             
1 50476U 21132H   23279.44215248  .00000047  00000+0  87534-4 0  9995
2 50476  87.9285 171.2983 0001738  82.7000 277.4330 13.18688176 91858
ONEWEB-0397             
1 50477U 21132J   23279.45691452 -.00000007  00000+0 -51082-4 0  9999
2 50477  87.9283 171.2964 0001720  85.9939 274.1390 13.18685288 91832
ONEWEB-0398             
1 50478U 21132K   23279.75400202 -.00000259  00000+0 -76758-3 0  9999
2 50478  87.8975 216.6469 0002404  52.0663 308.0682 13.11423830 87868
ONEWEB-0399             
1 50479U 21132L   23279.73942504 -.00006866  00000+0 -19417-1 0  9991
2 50479  87.8978 216.6606 0002608  82.0146 278.1277 13.11440506 87855
ONEWEB-0400             
1 50480U 21132M   23279.73935178  .00000021  00000+0  20316-4 0  9990
2 50480  87.9212 171.2590 0001655  66.5879 293.5427 13.18689144 93145
